{
  "type": "FeatureCollection",
  "features": [
    {
      "type": "Feature",
      "properties": {
        "norad_id": 39160,
        "name": "VNREDSAT 1",
        "group": "resource",
        "lat": -68.56650008834431,
        "lon": -155.7081115372985,
        "alt_km": 685.4491321947235,
        "timestamp": "2025-12-15T22:44:28.580388+00:00",
        "meta_object_name": "VNREDSAT 1",
        "meta_object_id": "2013-021B",
        "meta_epoch": "2025-12-15T08:29:21.390720",
        "meta_mean_motion": 14.64928973,
        "meta_eccentricity": 0.000126,
        "meta_inclination": 97.9375,
        "meta_ra_of_asc_node": 44.5371,
        "meta_arg_of_pericenter": 78.7152,
        "meta_mean_anomaly": 281.4193,
        "meta_ephemeris_type": 0,
        "meta_classification_type": "U",
        "meta_norad_cat_id": 39160,
        "meta_element_set_no": 999,
        "meta_rev_at_epoch": 67337,
        "meta_bstar": 0.00020050953,
        "meta_mean_motion_dot": 1.027e-05,
        "meta_mean_motion_ddot": 0,
        "tle_line1": "1 39160U 13021B   25349.35371980  .00001027  00000+0  20051-3 0  9995",
        "tle_line2": "2 39160  97.9375  44.5371 0001260  78.7152 281.4193 14.64928973673371"
      },
      "geometry": {
        "type": "Point",
        "coordinates": [
          -155.7081115372985,
          -68.56650008834431
        ]
      }
    },
    {
      "type": "Feature",
      "properties": {
        "norad_id": 39227,
        "name": "ARIRANG-5 (KOMPSAT-5)",
        "group": "resource",
        "lat": 63.702371424283115,
        "lon": 158.49753774531703,
        "alt_km": 544.4711225162837,
        "timestamp": "2025-12-15T22:44:28.580398+00:00",
        "meta_object_name": "ARIRANG-5 (KOMPSAT-5)",
        "meta_object_id": "2013-042A",
        "meta_epoch": "2025-12-15T08:05:20.207616",
        "meta_mean_motion": 15.04519665,
        "meta_eccentricity": 0.00035181,
        "meta_inclination": 97.6149,
        "meta_ra_of_asc_node": 173.6032,
        "meta_arg_of_pericenter": 47.9388,
        "meta_mean_anomaly": 312.2137,
        "meta_ephemeris_type": 0,
        "meta_classification_type": "U",
        "meta_norad_cat_id": 39227,
        "meta_element_set_no": 999,
        "meta_rev_at_epoch": 67621,
        "meta_bstar": 0.00016986091,
        "meta_mean_motion_dot": 2.319e-05,
        "meta_mean_motion_ddot": 0,
        "tle_line1": "1 39227U 13042A   25349.33703944  .00002319  00000+0  16986-3 0  9996",
        "tle_line2": "2 39227  97.6149 173.6032 0003518  47.9388 312.2137 15.04519665676212"
      },
      "geometry": {
        "type": "Point",
        "coordinates": [
          158.49753774531703,
          63.702371424283115
        ]
      }
    },
    {
      "type": "Feature",
      "properties": {
        "norad_id": 39418,
        "name": "SKYSAT-A",
        "group": "resource",
        "lat": 20.19437492954636,
        "lon": -137.1969962350446,
        "alt_km": 525.3294344418009,
        "timestamp": "2025-12-15T22:44:28.580410+00:00",
        "meta_object_name": "SKYSAT-A",
        "meta_object_id": "2013-066C",
        "meta_epoch": "2025-12-15T09:19:35.473728",
        "meta_mean_motion": 15.11624703,
        "meta_eccentricity": 0.00208366,
        "meta_inclination": 97.4111,
        "meta_ra_of_asc_node": 39.5168,
        "meta_arg_of_pericenter": 226.821,
        "meta_mean_anomaly": 133.1281,
        "meta_ephemeris_type": 0,
        "meta_classification_type": "U",
        "meta_norad_cat_id": 39418,
        "meta_element_set_no": 999,
        "meta_rev_at_epoch": 66070,
        "meta_bstar": 0.00014349278,
        "meta_mean_motion_dot": 2.386e-05,
        "meta_mean_motion_ddot": 0,
        "tle_line1": "1 39418U 13066C   25349.38860502  .00002386  00000+0  14349-3 0  9998",
        "tle_line2": "2 39418  97.4111  39.5168 0020836 226.8210 133.1281 15.11624703660700"
      },
      "geometry": {
        "type": "Point",
        "coordinates": [
          -137.1969962350446,
          20.19437492954636
        ]
      }
    },
    {
      "type": "Feature",
      "properties": {
        "norad_id": 39419,
        "name": "DUBAISAT-2",
        "group": "resource",
        "lat": -80.68679985954029,
        "lon": 107.36963031585935,
        "alt_km": 543.5398413758976,
        "timestamp": "2025-12-15T22:44:28.580421+00:00",
        "meta_object_name": "DUBAISAT-2",
        "meta_object_id": "2013-066D",
        "meta_epoch": "2025-12-15T05:39:02.880864",
        "meta_mean_motion": 15.08390248,
        "meta_eccentricity": 0.00102703,
        "meta_inclination": 97.4455,
        "meta_ra_of_asc_node": 339.5661,
        "meta_arg_of_pericenter": 313.0389,
        "meta_mean_anomaly": 46.9979,
        "meta_ephemeris_type": 0,
        "meta_classification_type": "U",
        "meta_norad_cat_id": 39419,
        "meta_element_set_no": 999,
        "meta_rev_at_epoch": 65864,
        "meta_bstar": 0.00031701086,
        "meta_mean_motion_dot": 4.873e-05,
        "meta_mean_motion_ddot": 0,
        "tle_line1": "1 39419U 13066D   25349.23545001  .00004873  00000+0  31701-3 0  9991",
        "tle_line2": "2 39419  97.4455 339.5661 0010270 313.0389  46.9979 15.08390248658645"
      },
      "geometry": {
        "type": "Point",
        "coordinates": [
          107.36963031585935,
          -80.68679985954029
        ]
      }
    },
    {
      "type": "Feature",
      "properties": {
        "norad_id": 39574,
        "name": "GPM-CORE",
        "group": "resource",
        "lat": 60.10277658621821,
        "lon": -32.40998166492771,
        "alt_km": 430.9370298615604,
        "timestamp": "2025-12-15T22:44:28.580432+00:00",
        "meta_object_name": "GPM-CORE",
        "meta_object_id": "2014-009C",
        "meta_epoch": "2025-12-15T06:44:22.781472",
        "meta_mean_motion": 15.44507595,
        "meta_eccentricity": 0.00096868,
        "meta_inclination": 64.9732,
        "meta_ra_of_asc_node": 204.1717,
        "meta_arg_of_pericenter": 246.1046,
        "meta_mean_anomaly": 113.908,
        "meta_ephemeris_type": 0,
        "meta_classification_type": "U",
        "meta_norad_cat_id": 39574,
        "meta_element_set_no": 999,
        "meta_rev_at_epoch": 66940,
        "meta_bstar": 0.00012997454,
        "meta_mean_motion_dot": 5.815e-05,
        "meta_mean_motion_ddot": 0,
        "tle_line1": "1 39574U 14009C   25349.28081923  .00005815  00000+0  12997-3 0  9997",
        "tle_line2": "2 39574  64.9732 204.1717 0009686 246.1046 113.9080 15.44507595669407"
      },
      "geometry": {
        "type": "Point",
        "coordinates": [
          -32.40998166492771,
          60.10277658621821
        ]
      }
    },
    {
      "type": "Feature",
      "properties": {
        "norad_id": 39634,
        "name": "SENTINEL-1A",
        "group": "resource",
        "lat": 44.32772681329936,
        "lon": -12.935661653681267,
        "alt_km": 691.2963496937009,
        "timestamp": "2025-12-15T22:44:28.580442+00:00",
        "meta_object_name": "SENTINEL-1A",
        "meta_object_id": "2014-016A",
        "meta_epoch": "2025-12-15T07:43:29.237952",
        "meta_mean_motion": 14.5920042,
        "meta_eccentricity": 0.00012473,
        "meta_inclination": 98.1807,
        "meta_ra_of_asc_node": 354.5256,
        "meta_arg_of_pericenter": 84.557,
        "meta_mean_anomaly": 275.5772,
        "meta_ephemeris_type": 0,
        "meta_classification_type": "U",
        "meta_norad_cat_id": 39634,
        "meta_element_set_no": 999,
        "meta_rev_at_epoch": 62320,
        "meta_bstar": 7.4026279e-05,
        "meta_mean_motion_dot": 3.03e-06,
        "meta_mean_motion_ddot": 0,
        "tle_line1": "1 39634U 14016A   25349.32186618  .00000303  00000+0  74026-4 0  9993",
        "tle_line2": "2 39634  98.1807 354.5256 0001247  84.5570 275.5772 14.59200420623208"
      },
      "geometry": {
        "type": "Point",
        "coordinates": [
          -12.935661653681267,
          44.32772681329936
        ]
      }
    },
    {
      "type": "Feature",
      "properties": {
        "norad_id": 39731,
        "name": "KAZEOSAT 1",
        "group": "resource",
        "lat": -2.0470835729578276,
        "lon": -118.51793889212637,
        "alt_km": 754.857951083457,
        "timestamp": "2025-12-15T22:44:28.580453+00:00",
        "meta_object_name": "KAZEOSAT 1",
        "meta_object_id": "2014-024A",
        "meta_epoch": "2025-12-15T08:34:41.934720",
        "meta_mean_motion": 14.42064626,
        "meta_eccentricity": 0.00011424,
        "meta_inclination": 98.3431,
        "meta_ra_of_asc_node": 61.2058,
        "meta_arg_of_pericenter": 96.9226,
        "meta_mean_anomaly": 263.2094,
        "meta_ephemeris_type": 0,
        "meta_classification_type": "U",
        "meta_norad_cat_id": 39731,
        "meta_element_set_no": 999,
        "meta_rev_at_epoch": 61206,
        "meta_bstar": 9.2483245e-05,
        "meta_mean_motion_dot": 2.61e-06,
        "meta_mean_motion_ddot": 0,
        "tle_line1": "1 39731U 14024A   25349.35742980  .00000261  00000+0  92483-4 0  9993",
        "tle_line2": "2 39731  98.3431  61.2058 0001142  96.9226 263.2094 14.42064626612063"
      },
      "geometry": {
        "type": "Point",
        "coordinates": [
          -118.51793889212637,
          -2.0470835729578276
        ]
      }
    }
  ]
}